ADDRESS	CITY	36.7782610	-119.41793240	STORE #	NAME	POSTAL CODE	PHONE	
PO Box 368 301 - 3rd St	Ashcroft	50.72418720	-121.28164660	2	Ashcroft	V0K 1A0	250-453-2542	
10444 - 100th St	Fort St John	56.25101050	-120.84744850	3	Fort St John	V1J 3Z1	250-787-3405	
270 - 1400 Dogwood St.	Campbell River	50.02899910	-125.2494230	5	Campbell River	V9W 3A6	250-287-4516	
"#149, 1711 - 152nd Street"	Surrey	49.03277970	-122.80126730	6	Semiahmoo	V4A 4N3	604-542-3990	
46040 Yale Rd	Chilliwack	49.17021930	-121.9537910	7	Chilliwack	V2P 7V2	604-795-8424	
PO Box 10 2700 Dunsmuir Ave	Cumberland	49.61885940	-125.03018570	8	Cumberland	V0R 1S0	250-336-2242	
#100-425 Victoria Ave. N	Cranbrook	49.51932190	-115.75358780	9	Cranbrook	V1C 6S3	250-426-1298	
1095 Cliffe Ave	Courtenay	49.68796940	-124.99471470	10	Courtenay	V9N 2J9	250-334-1333	
375 Trans Canada Hwy	Duncan	48.77816220	-123.69894160	12	Duncan	V9L 3R5	250-746-1323	
PO Box 807 792 - 2nd Ave	Fernie	49.50472180	-115.05993340	13	Fernie	V0B 1M0	250-423-6006	
PO Box 339 272 S Copper Rd	Greenwood	49.10276570	-118.67757760	14	Greenwood	V0H 1J0	250-445-6336	
PO Box 130 451 Central Avenue	Grand Forks	49.03279090	-118.44176290	15	Grand Forks	V0H 1H0	250-442-5440	
PO Box 690 906 10th Ave South	Golden	51.29584720	-116.96309590	16	Golden	V0A 1H0	250-344-7558	
PO Box 67 510 - 13th St	Invermere	50.50347860	-116.02723480	17	Invermere	V0A 1K0	250-342-4292	
PO Box 460 410 Front St	Kaslo	49.91199560	-116.90427380	18	Kaslo	V0G 1M0	250-353-2434	
PO Box 70 609 HWY 3	Keremeos	49.20514070	-119.82464450	19	Keremeos	V0X 1N0	250-499-5812	
PO Box 429 155 Main St	Lillooet	50.70317319999999	-121.92476050	23	Lillooet	V0K 1V0	250-256-4356	
"Unit 7, 370 Trans Canada Hwy"	Ladysmith	48.97792470	-123.80342510	24	Ladysmith	V9G 1T9	250-245-7359	
5202 - 48th Ave	Ladner	49.09023540	-123.07868060	25	Ladner	V4K 1W4	604-946-2020	
"PO Box 39 100 Robson Ctr, Hwy 16"	McBride	53.3013470	-120.16846090	26	McBride	V0J 2E0	250-569-2385	
#207 - 32530 Lougheed Hwy	Mission	49.13191070	-122.32219690	27	Mission	V2V 1A5	604-826-2541	
PO Box 285 117 Red Cedar Dr	Sparwood	49.73271060	-114.88963340	28	Sparwood	V0B 2G0	250-425-6254	
PO Box 264 #104 - 1700 Garcia St	Merritt	50.10878109999999	-120.78807380	29	Merritt	V1K 1B8	250-378-9384	
1075 Columbia St	New Westminster	49.2003490	-122.91914790	31	New Westminster	V3M 1C4	604-660-8699	
209 Anderson St	Nelson	49.49993440	-117.28356080	32	Nelson	V1L 3X8	250-354-6119	
#115 - 650 South Terminal Ave Port Place Shopping Centre	Nanaimo	49.16410880	-123.93548270	33	Nanaimo Port Place	V9R 5E2	250-716-5205	
PO Box 730 706 Primrose St	Qualicum	49.34725190	-124.44440270	34	Qualicum	V9K 1T2	250-752-9931	
100 2nd Ave W	Prince Rupert	54.30850870	-130.33388360	35	Prince Rupert	V8J 1J8	250-624-7424	
PO Box 159 130 Harold St	Princeton	49.46114090	-120.51012750	37	Princeton	V0X 1W0	250-295-6011	
8495 Granville St	Vancouver	49.2096110	-123.14055450	38	Marpole	V6P 4Z9	604-266-5931	
3764 - 10th Ave	Port Alberni	49.24506980	-124.79786830	40	Port Alberni	V9Y 4W6	250-724-9286	
#91 - 7100 Alberni St	Powell River	49.84648790	-124.51712010	41	Powell River	V8A 5K9	604-485-6311	
PO Box 129 319B East Island Hwy	Parksville	49.31963210	-124.30348860	42	Parksville	V9P 2G3	250-248-6531	
488 Reid St	Quesnel	52.98048590	-122.4971330	43	Quesnel	V2J 2M6	250-992-4296	
PO Box 760 2065 Columbia Ave	Rossland	49.0769090	-117.7986670	44	Rossland	V0G 1Y0	250-362-7532	
PO Box 80 111 Campbell Ave	Revelstoke	51.00027950	-118.19568640	45	Revelstoke	V0E 2S0	250-837-7676	
PO Box 727 1114 Queen St	Smithers	54.78054419999999	-127.17507450	46	Smithers	V0J 2N0	250-847-7408	
PO Box 37 415 4th Ave	Stewart	52.8812160	-127.73768990	47	Stewart	V0T 1W0	250-636-2524	
PO Box 58 111 Lakeshore Dr	Salmon Arm	50.70299800000001	-119.28241850	48	Salmon Arm	V1E 4N2	250-832-1668	
PO Box 459 119 George St	Enderby	50.54419380	-119.14020540	49	Enderby	V0E 1V0	250-838-7308	
2335 Beacon Ave	Sidney	48.64893670	-123.40323520	50	Sidney	V8L 1W9	250-656-3041	
1629 - 2nd Ave	Trail	49.09670060	-117.7004580	51	Trail	V1R 1M3	250-364-0558	
3240 Eby St	Terrace	54.51846360	-128.59901340	52	Terrace	V8G 5H4	250-635-5850	
555 W Hastings	Vancouver	49.28456230	-123.11218170	53	Harbour Centre	V6B 4N5	604-660-4574	
PO Box 430 375 Nimpkish Street	Gold River	49.77827079999999	-126.05098520	55	Gold River	V0P 1G0	250-283-2919	
#8 - 7103 W Saanich Rd	Brentwood Bay	48.57524650	-123.44520010	59	Trafalgar Square	V8M 1R1	250-652-1212	
PO Box 67 1360 Hwy 97 N	Cache Creek	50.81080990	-121.32332370	60	Cache Creek	V0K 1H0	250-457-6636	
730-B Oliver St	Williams Lake	52.12827730	-122.13728540	63	Williams Lake	V2G 1N1	250-398-4218	
PO Box 130 7250 Pioneer Ave	Agassiz	49.23843780	-121.75970940	64	Agassiz	V0M 1A0	604-796-2421	
300-22709 Lougheed Hwy	Maple Ridge	49.21710480	-122.62527730	65	Haney	V2X 2V5	604-463-4509	
425 Mark St	Kimberley	49.68346140	-115.9823760	66	Kimberley	V1A 2G7	250-427-2322	
PO Box 588 93 Darnell Rd	Lake Cowichan	48.82723980	-124.05157510	67	Lake Cowichan	V0R 2G0	250-749-3424	
1310 Esquimalt Rd	Victoria	48.42984280	-123.41697620	68	Esquimalt	V9A 3P6	250-952-4114	
PO Box 128 5966 Main Street	Oliver	49.1958010	-119.55553390	69	Oliver	V0H 1T0	250-498-3611	
#100 - 5630 176th St	Surrey	49.10459160	-122.73496990	70	Cloverdale	V3S 4T7	604-574-4452	
PO Box 460 770 - 5th Ave	Hope	49.38042850	-121.43749210	71	Hope	V0X 1L0	604-869-5231	
1434 Marine Drive	West Vancouver	49.32807950	-123.15531710	72	Ambleside 	V7T 1B7	604-981-0020	
#8-117 Highway 35	Burns Lake	54.1998410	-125.74263750	73	Burns Lake	V0J 1E0	250-692-2258	
"PO Box 8, 717 Josephine St"	New Denver	49.99150419999999	-117.37532250	74	New Denver	V0G 1S0	250-358-2341	
PO Box 9 #2 - 1000 NW Blvd Mall	Creston	49.00845940000001	-116.87289680	75	Creston Valley Mall	V0B 1G0	250-428-3250	
#100 - 8100 Ackroyd Rd	Richmond	49.17217180	-123.13630830	76	Richmond Brighouse	V6X 3K2	604-278-2343	
Unit 103 - 3433 North Rd.	Burnaby	49.25267890	-122.89360480	77	Northgate	V3J 0A9	604-664-0844	
Unit G 635 Columbia Avenue	Castlegar	49.32181620	-117.66578670	78	Castlegar	V1N 1G9	250-365-8543	
#600 - 1210 Summit Dr	Kamloops	50.66634590	-120.35172960	79	Kamloops Columbia Place	V2C 6M1	250-828-4319	
"#18-900 Gibsons Way, RR7"	Gibsons	49.40674260	-123.51894460	80	Gibsons	V0N 1V7	604-886-2013	
PO Box 156 2557 Burrard St	Vanderhoof	54.01738410	-124.00922160	81	Vanderhoof	V0J 3A0	250-567-6310	
PO Box 309 8110 Main Street	Osoyoos	49.03172580	-119.4633290	83	Osoyoos	V0H 1V0	250-495-7321	
#2 - 13604 Victoria Rd N	Summerland	49.60326250	-119.68340630	86	Summerland	V0H 1Z0	250-494-3591	
PO Box 2541 74 Young St. Unit #1	Clearwater	51.6442180	-120.07321760	88	Clearwater	V0E 1N2	250-674-3622	
#140 - 1097 Nicola Ave	Port Coquitlam	49.2580610	-122.74488530	89	Nicola Station	V3B 8B2	604-464-3576	
#101 - 2083 Alma St	Vancouver	49.26789780	-123.18574350	90	Jericho Village	V6R 4N6	604-224-9380	
PO Box 490 111 Chowsunket Ave	Fraser Lake	54.05872580	-124.84979930	91	Fraser Lake	V0J 1S0	250-699-7717	
PO Box 188 309 Main Street	Sicamous	50.83565470	-118.98619810	92	Sicamous	V0E 2V0	250-836-2218	
PO Box 128 Madeira Park Centre Mall#1 - 12887 Madeira Park Rd.	Madeira Park	49.6177170	-124.0210130	93	Madeira Park	V0N 2H0	604-883-2737	
1155 Bute St	Vancouver	49.28179330	-123.13334480	94	Bute Street	V6E 1Z7	604-660-4569	
PO Box 785 1952 Columbia Garden Rd	Fruitvale	49.11352920	-117.54236580	95	Fruitvale	V0G 1L0	250-367-9112	
PO Box 460 1163 - 5th Ave	Valemount	52.832080	-119.26348260	96	Valemount	V0E 2Z0	250-566-4200	
800 McBride Blvd	New Westminster	49.2229790	-122.9147820	97	Royal Square	V3L 2B8	604-660-8730	
1319 H 56th St	Delta	49.02626980	-123.06887990	98	Tsawwassen	V4L 2A6	604-943-3322	
PO Box 69 3232 Hwy 16	Houston	54.40731539999999	-126.64232880	99	Houston	V0J 1Z0	250-845-7444	
3100 East Broadway	Vancouver	49.26185550	-123.03642930	100	Wholesale Customer Centre (WCC)	V5M 1Z6	604-775-0681	
PO Box 46 1341 Aster Rd	Pemberton	50.32131860	-122.8090230	101	Pemberton	V0N 2L0	604-894-6534	
3453 Dunbar St	Vancouver	49.2561370	-123.18513490	102	Dunbar	V6S 2C3	604-224-4412	
PO Box 379 2072 Collison	Masset	54.01146250	-132.14721060	105	Masset	V0T 1M0	250-626-5111	
PO Box 550 403 MacKenzie Blvd	MacKenzie	55.33864190	-123.09476970	106	Mackenzie	V0J 2C0	250-997-3700	
#770 - 2601 Westview Drive	North Vancouver	49.33369440000001	-123.08817170	107	Westview	V7N 3X4	604-981-0026	
#200 - 26310 Fraser Hwy	Aldergrove	49.05986380	-122.49502760	109	Aldergrove	V4W 2Z7	604-856-7408	
12881 - 16th Ave	Surrey	49.03130150	-122.86532520	110	Ocean Park	V4A 1N5	604-531-7711	
1520 Commercial Dr	Vancouver	49.27097710	-123.06957520	111	Commercial Drive	V5L 3Y2	604-660-9088	
1655 Davie St	Vancouver	49.28600740	-123.13972140	112	Cardero	V6G 1W1	604-660-4570	
3436 Kingsway	Vancouver	49.23200580	-123.03141160	113	Collingwood-Kingsway	V5R 5L4	604-660-5484	
3825 West Austin Rd	Prince George	53.98885290	-122.78930170	114	Prince George Hart	V2K 2H7	250-962-6364	
PO Box 490 1705 Campbell Way	Port McNeill	50.5890540	-127.08698990	115	Port McNeill	V0N 2R0	250-956-4142	
2555 Maple St. 	Vancouver	49.26371380	-123.15053190	117	Broadway & Maple	V6J 1Z4	604-660-1703	
PO Box 370 328 Neill St	Tofino	49.15206329999999	-125.90693110	118	Tofino	V0R 2Z0	250-725-3722	
#3170-11666 Steveston Hwy	Richmond	49.13346880	-123.11784560	120	Richmond Ironwood	V7A 5J3	604-664-0701	
#101 - 10761 King George Blvd	Surrey	49.19806250	-122.84563610	122	Whalley	V3T 2X6	604-581-0511	
370 E Broadway	Vancouver	49.26230650	-123.09838050	123	Kingsgate Mall	V5T 4G5	604-660-6675	
2955 Tillicum Rd	Victoria	48.44892320	-123.39918140	124	Gorge & Tillicum	V9A 2A6	250-387-1600	
Unit #600 - 2945 Jacklin Rd.	Langford	48.44069840	-123.50839730	125	Westshore **	V9B 5E3	250-391-2811	
PO Box 629 9110 Glover Rd	Fort Langley	49.16830840	-122.58007040	127	Fort Langley	V1M 2R9	604-888-5711	
PO Box 160 1071 Marine Drive	Port Alice	50.42641050	-127.48846110	128	Port Alice	V0N 2N0	250-284-3436	
768 Bute St.	Vancouver	49.28669930	-123.12594130	129	Alberni & Bute	V6E 4H6	604-660-4572	
#405 - 1301 Main St	Penticton	49.49118499999999	-119.58903020	130	Penticton Plaza	V2A 5E9	250-492-1319	
PO Box 400 814 Michel Rd	Elkford	50.02599360	-114.9208410	131	Elkford	V0B 1H0	250-865-2466	
411 North Dollarton Hwy	North Vancouver	49.30704240	-122.95310620	133	Dollarton Village	V7G 1M9	604-929-2112	
548 North Road	Gabriola Island	49.16508520	-123.79598780	134	Gabriola Island	V0R 1X0	250-247-0271	
"Unit 245A, Village Green Mall 4900 27th Street"	Vernon	50.28363570	-119.26938060	135	Vernon	V1T 7G7	250-503-3610	
#158 - 4255 Arbutus St	Vancouver	49.2483940	-123.1532620	136	Arbutus	V6J 4R1	604-660-1704	
PO Box 390 4639 Barriere Town Rd	Barriere	51.17787190	-120.1254930	138	Barriere	V0E 1E0	250-672-9755	
PO Box 340 #10 - 150 Opal Dr	Logan Lake	50.49425189999999	-120.81382960	139	Logan Lake	V0K 1W0	250-523-6712	
3611 Shelbourne St	Victoria	48.45907589999999	-123.33289550	140	Cedar Hill	V8P 4H1	250-952-4328	
#27 - 2475 Dobbin Rd	Westbank	49.8284390	-119.63086890	143	Kelowna Westbank	V4T 2E9	250-768-7394	
7017 - 120th St	Delta	49.13065820	-122.89042930	145	Scottsdale	V4E 2A9	604-591-3433	
#19 - 3435 Westsyde Rd	Kamloops	50.77143670	-120.34261160	147	Kamloops Westsyde	V2B 7H1	250-579-9033	
#35 - 3155 Lakeshore Rd	Kelowna	49.86027290	-119.4912380	148	Kelowna Mission Park	V1W 3S9	250-861-7260	
#40 - 32500 South Fraser Way	Abbotsford	49.04994130000001	-122.3254890	149	Abbotsford	V2T 4W1	604-870-5919	
#101 - 225 Menzies Street	Victoria	48.41599560	-123.37354360	150	James Bay	V8V 2G6	250-953-3996	
#24 - 935 Marine Dr	North Vancouver	49.3224950	-123.09856970	152	Capilano Mall	V7P 1S3	604-981-0030	
1972 Como Lake Rd	Coquitlam	49.26333320	-122.83795220	153	Como Lake	V3J 3R3	604-931-6612	
5242 Domano Blvd	Prince George	53.86810170	-122.77366370	154	Pr. George College Hts	V2N 4A1	250-964-4333	
"Box 106, Driftwood Centre Mall Bedwell Harbour Rd."	Pender Island	48.77587650	-123.25561520	155	Pender Island	V0N 2M0	250-629-3413	
#23 - 826 Island Hwy	Parksville	49.3333930	-124.3465950	157	Parksville North	V9P 2B7	250-248-3724	
6435 - 201 Street	Langley	49.13664340	-122.66471630	158	Langley	V2Y 2X4	604-532-4911	
5555 Cambie St	Vancouver	49.23530840	-123.11627610	160	39th & Cambie	V5Z 3A3	604-660-9463	
787 Hillside Ave	Victoria	48.43880970000001	-123.36400520	161	Blanshard Square	V8T 1Z5	250-356-2915	
#100 - 2748 Lougheed Hwy	Port Coquitlam	49.27267440	-122.788720	163	Westwood Centre	V3B 6P2	604-927_2681	
Unit 810 - 19800 Lougheed Hwy	Pitt Meadows	49.22580610	-122.67622650	165	Meadowtown	V3Y 2W1	604-460-2601	
#30_10051 Hwy 97	Winfield	50.01343420	-119.3996930	166	Winfield	V4V 1P6 	250-766-4044	
#109 - 1835 Dilworth Dr	Kelowna	49.88144390	-119.43733120	167	Kelowna Orchard Park	V1Y 9T1	250-861-7337	
PO Box 650 225 Main St	Tumbler Ridge	55.12554979999999	-120.99931180	169	Tumbler Ridge	V0C 2W0	250-242-3366	
Unit A - 7544 Vedder Rd	Chilliwack	49.13912550	-121.95903450	170	Sardis	V2R 4E7	604-858-9609	
Unit 520 - 7488 King George Blvd	Surrey	49.13820519999999	-122.84489490	172	Kings Cross	V3W 0H9	604-501-3140	
#270 - 2720 Mill Bay Rd	Mill Bay	48.65203030	-123.55865560	173	Mill Bay	V0R 2P1	250-743-2161	
3173 Massey Drive	Prince George	53.89949920	-122.78122140	174	Prince George Pine Centre	V2N 2S9	250-561-5608	
#195 - 5335 Headland Dr	West Vancouver	49.35076770	-123.25218190	175	Caulfield	V7W 3C6	604-922-8201	
2395 Cambie St	Vancouver	49.26423550	-123.11493490	177	8th & Cambie	V5Z 2T9	604-660-0158	
1520 Fairfield Rd	Victoria	48.41231440	-123.33865950	178	Fairfield	V8S 1G1	250-952-4159	
#101 - 4360 Lorimer Rd	Whistler	50.12033880	-122.9570510	179	Whistler Marketplace	V0N 1B0	604-932-7251	
PO Box 24 #370 Broadmead Village 777 Royal Oak Dr	Victoria	48.49751999999999	-123.38295880	181	Broadmead Village	V8X 4V1	250-744-1622	
8904 - 152nd St	Surrey	49.16303930	-122.80141960	182	Fleetwood	V3R 4E4	604-582-0008	
#280 - 15355 - 24th Ave	Surrey	49.0457130	-122.7966250	183	Peninsula Village	V4A 2H9	604-535-8259	
#11-2116 Island Hwy S	Campbell River	49.97789520	-125.22114310	185	Willow Point	V9W 1C1	250-923-8637	
#501 - 8840 210th St	Langley	49.16326020	-122.63771280	186	Walnut Grove	V1M 2Y2	604-513-4640	
#27B - 4567 Lougheed Hwy	Burnaby	49.2672830	-123.00073830	187	Brentwood	V5C 3Z6	604-660-0818	
#3-5765 Turner Rd	Nanaimo	49.22743740	-124.03277920	188	Nanaimo Longwood	V9T 6L8	250-729-2647	
#117-2070 Sumas Way	Abbotsford	49.03180560	-122.26587510	189	Abbotsford Village	V2S 2C7	604-870-5429	
1108 Pacific Boulevard	Vancouver	49.27428310	-123.11969450	191	Yaletown	V6Z 2X7	604-664-0118	
Unit 102A-2158 Western Parkway	Vancouver	49.26803330	-123.24521430	192	UBC Marketplace	V6T 1V6	604-225-5220	
#110 - 3150 East 54 Ave	Vancouver	49.22017109999999	-123.0395110	194	Champlain Square	V5S 1Z1	604-660-1277	
#205 - 2071 Lake Placid Rd.	Whistler	50.0942150	-122.99041280	195	Whistler Creekside	V0N 1B2	604-905-4927	
100 - 132 West Esplanade	North Vancouver	49.31167440	-123.08056910	196	Esplanade	V7M 1A2	604 981-0031	
PO Box 280 1421 Cariboo Hwy	Clinton	51.05749040	-121.55630270	201	Clinton	V0K 1K0	250-459-2444	
PO Box 689 87 - 5th Ave W	Nakusp	50.2391690	-117.80399070	202	Nakusp	V0G 1R0	250-265-3654	
16 - 4429 Kingsway	Burnaby	49.23142379999999	-123.00512220	203	South Burnaby	V5H 2A1	604-660-5486	
#1107-115 Fulford Ganges Rd	Salt Spring Island	48.81072680	-123.47883740	204	Ganges	V8K 2T9	250-537-5441	
#101 - 130 Brew Street	Port Moody	49.2799530	-122.82859320	205	Port Moody	V3H 0E4	604-933-2094	
PO Box 209 2592 Legion St	Chemainus	48.92243790	-123.71872250	206	Chemainus	V0R 1K0	250-246-3531	
PO Box 520 115 Main St	Salmo	49.19340330	-117.27931430	207	Salmo	V0G 1Z0	250-357-9351	
40204 Glenalder Place	Squamish	49.73634920000001	-123.13285170	208	Squamish	V8B 0G2	604-892-3955	
2058 W 41st Ave	Vancouver	49.23452130	-123.15389650	210	Kerrisdale	V6M 1Y8	604-266-6922	
PO Box 66 115 Oceanview Drive	Queen Charlotte City	53.25260480	-132.06053690	211	Queen Charlotte	V0T 1S0	250-559-4726	
1020 Alaska Ave	Dawson Creek	55.7596260	-120.22911880	212	Dawson Creek	V1G 1Y6	250-784-2248	
550 Mountainview Sq	Kitimat	54.05055090	-128.65096870	213	Kitimat	V8C 2N2	250-632-6616	
PO Box 246 2080 Vernon St	Lumby	50.24468190	-118.97185030	214	Lumby	V0E 2G0	250-547-2322	
Box 478 3495 Smith Drive	Armstrong	50.44880780	-119.18457660	215	Armstrong	V0E 1B0	250-546-9476	
PO Box 130 234 Main St	Ucluelet	48.94287470	-125.54632960	216	Ucluelet	V0R 3A0	250-726-4411	
4450 E Hastings St	Burnaby	49.28102050	-123.0042170	217	North Burnaby	V5C 2K2	604-660-7366	
1960 Foul Bay Rd	Victoria	48.4320460	-123.32241930	218	Fort Street	V8R 5A7	250-952-4220	
#235-7155 Kingsway	Burnaby	49.21844390	-122.96190440	220	HighGate Village	V5E 2V1	604-660-8731	
PO Box 580 #2 - 575A Alder Ave	100 Mile House	51.63864110	-121.29798140	221	100 Mile House	V0K 2E0	250-395-5590	
PO Box 595 5107 Airport Dr	Fort Nelson	58.80777060	-122.69562910	222	Fort Nelson	V0C 1R0	250-774-6757	
#78-700 Tranquille Road	Kamloops	50.7047790	-120.43097180	223	Kamloops North	V2B 3H9	250-828-4113	
PO Box 68 21 Maple St	Alert Bay	50.58329590	-126.92516190	225	Alert Bay	V0N 1A0	250-974-5450	
PO Box 250 119 Chase St	Chase	50.82025110	-119.68851940	226	Chase	V0E 1M0	250-679-8454	
PO Box 274 4330 Field St.	Hazelton	55.25648550	-127.6747410	227	Hazelton	V0J 1Y0	250-842-5424	
570 Park Royal North	West Vancouver	49.3275140	-123.13544560	228	Park Royal	V7T 1A1	604-981-0011	
9050-6660 Sooke Rd	Sooke	48.3556770	-123.64362930	229	Sooke	V9Z 0A5	250-642-3233	
PO Box 458 Trail Bay Shopping Ctr 5755 Cowrie St.	Sechelt	49.56274530	-123.75320170	230	Sechelt	V0N 3A0	604-885-9794	
2219 Government St	Victoria	48.43386930	-123.36730420	231	Wholesale Customer Centre (WCC)	V8T 4P3	250-356-2906	
"PO Box 63, 624 Cliff St"	Bella Coola	52.37212770	-126.75393460	232	Bella Coola	V0T 1C0	250-799-5341	
1716 Robson Street	Vancouver	49.29077239999999	-123.13434880	233	Robson Street	V6G 1E2	604-660-9031	
PO Box 366 10328 Gething St.	Hudson Hope	56.02735860	-121.91283680	234	Hudson Hope	V0C 1V0	250-783-5230	
204 Port Augusta St.	Comox	49.67240169999999	-124.92611670	235	Comox	V9M 3N1	250-339-3812	
PO Box 338 8775 Granville St	Port Hardy	50.72070790	-127.49683580	236	Port Hardy	V0N 2P0	250-949-6636	
4423 Main St.	Vancouver	49.24556420	-123.1014260	237	28th & Main	V5V 3R2	604-660-6678	
PO Box 450 49th Ave W	Chetwynd	55.69763200000001	-121.6127330	238	Chetwynd	V0C 1J0	250-788-2657	
1720 Guildford Town Ctr	Surrey	49.18882510	-122.80434220	240	Guildford	V3R 7B7	604-581-1511	
Unit 116 - 12080 Nordel Way	Surrey	49.16199820	-122.88900110	241	Nordel Crossing	V3W 1P6	604-501-3201	
1087 McKenzie Ave	Victoria	48.47003270	-123.36465970	242	Saanich	V8P 2L5	250-952-4001	
1533 Estevan Rd	Nanaimo	49.18520119999999	-123.95503930	243	Nanaimo Terminal Park	V9S 3Y3	250-741-5560	
#10 - 8671 No. 1 Rd	Richmond	49.15032560	-123.18126950	244	Richmond Seafair	V7C 1V2	604-277-4216	
PO Box 68 #7531 Highway 95	Radium	50.62344270	-116.07237270	245	Radium	V0A 1M0	250-347-9536	
#15 - 1199 Lynn Valley Rd	North Vancouver	49.33458960	-123.04051780	247	Lynn Valley	V7J 3H2	604-981-0014	
PO Box 160 161 Stuart Drive West	Fort St James	54.44277370	-124.25278540	248	Fort St James	V0J 1P0	250-996-8414	
3150 E Broadway	Vancouver	49.26189309999999	-123.03693940	300	Broadway & Lillooet	V5M 1Z6	604-660-0604	
4211 Village Square	Whistler	50.11474910	-122.95609280	302	Whistler Village	V0N 1B4	604-932-5050	
